#aV2011  3 14  0  0   .00000000      96 DD+AD WGS84 FIT  NGA
## 1627  86400.00000000   900.00000000 55634  .0000000000000
+   32     1  2  3  4  5  6  7  8  9 10 11 12 13 14 15 16 17
+         18 19 20 21 22 23 24 25 26 27 28 29 30 31 32  0  0
+          0  0  0  0  0  0  0  0  0  0  0  0  0  0  0  0  0
+          0  0  0  0  0  0  0  0  0  0  0  0  0  0  0  0  0
+          0  0  0  0  0  0  0  0  0  0  0  0  0  0  0  0  0
++         0  0  0  0  0  0  0  0  0  0  0  0  0  0  0  0  0
++         0  0  0  0  0  0  0  0  0  0  0  0  0  0  0  0  0
++         0  0  0  0  0  0  0  0  0  0  0  0  0  0  0  0  0
++         0  0  0  0  0  0  0  0  0  0  0  0  0  0  0  0  0
++         0  0  0  0  0  0  0  0  0  0  0  0  0  0  0  0  0
%c cc cc ccc ccc cccc cccc cccc cccc ccccc ccccc ccccc ccccc
%c cc cc ccc ccc cccc cccc cccc cccc ccccc ccccc ccccc ccccc
%f  0.0000000  0.000000000  0.00000000000  0.000000000000000
%f  0.0000000  0.000000000  0.00000000000  0.000000000000000
%i    0    0    0    0      0      0      0      0         0
%i    0    0    0    0      0      0      0      0         0
/*      NGA, ST. LOUIS,MO.                                  
/*   EPHEMERIS COMPUTED FROM  3 DAYS OF DATA                
/* CCCCCCCCCCCCCCCCCCCCCCCCCCCCCCCCCCCCCCCCCCCCCCCCCCCCCCCCC
/* CCCCCCCCCCCCCCCCCCCCCCCCCCCCCCCCCCCCCCCCCCCCCCCCCCCCCCCCC
*  2011  3 14 12  0   .00000000                                                 
P  1  -7871.369804  19587.213392  15917.837772   -215.309820                    
V  1  -5208.445750 -19878.223609  21870.013947      -.028026                    
P  2    725.564606 -16165.969276  21147.274960    325.107876                    
V  2  25360.048563   8688.008389   5295.933375       .019250                    
P  3  -5210.319299  21561.182057 -14779.978440    688.231735                    
V  3 -14669.659199  11292.765456  22588.567923       .050808                    
P  4  14589.442804  -9933.812929  19735.851063     60.336553                    
V  4  23417.917153  10156.245101 -11726.051165       .103536                    
P  5  -1126.540456 -26095.592084   4474.342736   -128.873014                    
V  5   3941.823680   5152.692912  31002.713266      -.058773                    
P  6 -10616.051814  21209.616208 -11575.476910    -35.151420                    
V  6 -13321.713311   7764.590274  26289.834684     -1.289646                    
P  7  25332.088359   4864.861606  -6758.041062      5.587882                    
V  7   7192.629494   5045.731880  30373.804906       .008817                    
P  8  21299.019633  -1470.883864 -16127.018694      7.558650                    
V  8  17922.046463   9424.218984  22251.651619       .001265                    
P  9 -18607.493419 -15078.196144 -12037.951216     67.535304                    
V  9  14116.048098   3268.414510 -27142.369666       .024176                    
P 10   9616.009180 -17806.706841  16791.040033    -68.781626                    
V 10   5309.109510  21378.316391  19751.861760      -.010420                    
P 11  19474.235590  12963.384926 -13196.446021   -134.381481                    
V 11 -16646.539135   1741.449829 -23062.357284      -.030478                    
P 12 -11133.726089 -21253.673096  11612.259872    -19.441530                    
V 12   -262.708003 -14734.043067 -27124.205325       .028959                    
P 13  20955.698340  -1686.660266  16118.909118    279.100281                    
V 13 -16224.993923  12845.026612  22193.323045      -.014672                    
P 14 -21762.411138  15051.742641  -1017.718128    137.437277                    
V 14   -106.250364  -2660.783182 -32306.830987       .024550                    
P 15  -7972.297317 -13368.655795 -21499.873026   -143.502280                    
V 15  21111.572661 -17428.286644   3167.882684       .032025                    
P 16  -1404.736198  25454.554641   6910.847467   -157.576592                    
V 16  -3599.964037  -8396.408236  30621.490900      -.028472                    
P 17  21730.119904 -14885.725270  -2143.065127    183.891164                    
V 17   -461.294190   4143.327432 -31756.037384       .002932                    
P 18 -15708.648366    632.492332 -21120.713782    126.412171                    
V 18  -3930.837739 -27336.973502   1704.532470       .020364                    
P 19   3213.195695  15754.535879 -21079.566814   -120.085485                    
V 19 -22591.075282  14528.468089   7749.192376      -.037646                    
P 20  14208.031329  17296.211302  14198.251229     48.703228                    
V 20    939.071451  18508.081085 -23176.365104       .000510                    
P 21 -25473.623288  -4310.084484  -7023.926932   -130.308819                    
V 21  -7567.461852  -6246.069425  29005.066139      -.026355                    
P 22 -12418.594537  13426.825093 -19062.519454    151.790283                    
V 22  -5181.039301 -24205.150765 -13656.075305      -.008460                    
P 23  13354.570259   8322.998045  21437.009795    320.179024                    
V 23 -20980.736103  17258.077372   6036.961278      -.024875                    
P 24  20331.221232  15273.192723  -8082.372976    373.194124                    
V 24 -10525.097430  -1611.288564 -29038.125264       .031286                    
P 25 -15565.524149  -7797.679213  20050.526103    -70.901522                    
V 25  -3412.383673 -25271.106029 -12452.878463      -.008029                    
P 26   5419.631542 -18672.340302 -18479.666883   -144.871330                    
V 26  18998.505887 -11879.495098  18564.019321      -.100372                    
P 27 -14734.274241 -15522.766696 -15256.274114    245.487919                    
V 27  19914.781884   4808.631299 -22838.150437       .036883                    
P 28  13026.683019  -9235.499228 -20657.997010     25.169994                    
V 28   4261.262226  27131.843352  -9469.234537       .021837                    
P 29 -19439.756213  -1123.992681  18125.606613    192.278581                    
V 29  17272.985131 -15062.163484  17710.374861       .027351                    
P 30  -4705.911966  22373.547728  13081.761832    329.062658                    
V 30  -5900.888828 -16439.804315  25245.129941       .030779                    
P 31 -11945.859435  10772.542219  21382.448108     52.977788                    
V 31 -24604.673700 -10034.009480  -8571.644109       .049159                    
P 32   8077.725985  24048.779324   8822.147783   -214.795337                    
V 32  -1539.293501  10840.609761 -28698.460761      -.076356                    
EOF
